satname,norad_id,inclination_deg,eccentricity,mean_motion_rev_per_day,perigee_km,apogee_km,l1,l2
STARLINK-1008,44714,53.1578,0.0001237,15.31023871,471.9087867989283,473.6036977870717,1 44714U 19074B   26061.78686752  .00000551  00000+0  30057-4 0  9994,2 44714  53.1578 210.8592 0001237  79.6180 280.4960 15.31023871347815
STARLINK-1012,44718,53.161,0.0001119,15.30189297,474.48013316176366,476.01392050696995,1 44718U 19074F   26061.69818623 -.00000133  00000+0  76490-5 0  9991,2 44718  53.1610 211.2819 0001119  88.3003 271.8126 15.30189297347792
STARLINK-1017,44723,53.0531,0.0001687,15.23337771,494.6216957998904,496.9409558430216,1 44723U 19074L   26061.72206453  .00051078  00000+0  21222-2 0  9996,2 44723  53.0531 203.5885 0001687 129.6474 230.4671 15.23337771347900
STARLINK-1019,44724,53.0437,0.0003055,15.79355297,330.2161391535201,334.3161954887528,1 44724U 19074M   26061.91668981  .00122966  00000+0  66180-3 0  9994,2 44724  53.0437 170.7196 0003055 178.5738 219.3387 15.79355297  6022
STARLINK-1020,44725,53.1602,0.0001301,15.30155505,474.45628829943144,476.23956507735693,1 44725U 19074N   26061.91668981  .00069226  00000+0  23309-2 0  9999,2 44725  53.1602 235.3086 0001301  69.6244 153.7690 15.30155505  5673
STARLINK-1031,44736,53.0409,0.0003632,15.87563518,306.68739792743963,311.5450186579428,1 44736U 19074Z   26061.91668981  .00167798  00000+0  60864-3 0  9992,2 44736  53.0409 154.4975 0003632 329.0975  76.3076 15.87563518  6049
STARLINK-1036,44741,53.0502,0.0003073,15.54249348,402.25130644302044,406.41981407855747,1 44741U 19074AE  26061.91668981  .00160214  00000+0  23712-2 0  9994,2 44741  53.0502 221.3008 0003073 215.4188  75.8059 15.54249348  5908
STARLINK-1039,44744,53.0465,0.0005105,15.20888939,499.64505679933427,506.6708589513246,1 44744U 19074AH  26061.78290365  .00045452  00000+0  20320-2 0  9997,2 44744  53.0465 246.8266 0005105 151.2307 208.8970 15.20888939347306
STARLINK-1042,44747,53.0436,0.0001969,15.49392963,417.16246928121564,419.8389852182063,1 44747U 19074AL  26061.55888154  .00025858  00000+0  47000-3 0  9997,2 44747  53.0436 128.9966 0001969 109.4741 250.6480 15.49392963348967
STARLINK-1043,44748,53.052,0.0002358,15.53111156,406.0487413252604,409.2489179225113,1 44748U 19074AM  26061.77367088  .00034563  00000+0  54748-3 0  9990,2 44748  53.0520 227.8533 0002358  89.9667 270.1612 15.53111156347571
STARLINK-1046,44751,53.0532,0.0006629,15.42952904,432.88168858029803,441.9177271475846,1 44751U 19074AQ  26061.81057208  .00038032  00000+0  85549-3 0  9997,2 44751  53.0532 243.5262 0006629 152.1394 207.9967 15.42952904347356
STARLINK-1047,44752,53.0715,0.0002835,15.32389496,466.74434008047956,470.6264883893509,1 44752U 19074AR  26061.58335963  .00012834  00000+0  41560-3 0  9996,2 44752  53.0715 179.2008 0002835 177.0877 183.0141 15.32389496348257
STARLINK-1048,44753,53.0518,0.0002013,15.5192417,409.7417764564061,412.4751266752064,1 44753U 19074AS  26061.91668981  .00120789  00000+0  19561-2 0  9997,2 44753  53.0518 201.4763 0002013 158.1704 341.2803 15.51924170  5946
STARLINK-1053,44758,53.0289,0.0007185,15.88213142,302.4890859479319,312.0960482358432,1 44758U 19074AX  26061.91668981  .00253760  00000+0  88022-3 0  9997,2 44758  53.0289 117.9488 0007185  28.7769 125.3600 15.88213142  5945
STARLINK-1063,44768,53.1561,0.0002072,15.29548192,475.7415237728028,478.58235965424774,1 44768U 19074BH  26061.82890189 -.00531147  00000+0 -19622-1 0  9993,2 44768  53.1561 251.2620 0002072 126.9786 233.1405 15.29548192347266
STARLINK-1067,44771,53.052,0.0001215,15.55804806,398.99064513870053,400.63768727208844,1 44771U 19074BL  26061.76067016  .00129665  00000+0  18212-2 0  9996,2 44771  53.0520 237.7559 0001215 251.0638 109.0241 15.55804806347432
STARLINK-1068,44772,53.0481,0.0002598,15.61745624,380.8581032168195,384.3709897203653,1 44772U 19074BM  26061.91668981  .00171166  00000+0  19092-2 0  9992,2 44772  53.0481 213.0171 0002598 218.7505 192.5329 15.61745624  5988
STARLINK-1112,44925,53.0345,0.0004134,16.05219074,257.2469680657232,262.7353724368877,1 44925U 20001M   26062.01736829  .00693267  24760-3  97397-3 0  9992,2 44925  53.0345 275.7139 0004134 260.1442  99.9123 16.05219074340253
STARLINK-1114,44927,53.0512,0.0008628,15.48852295,414.2168294551093,425.947836736299,1 44927U 20001P   26061.84233578  .00074000  00000+0  13456-2 0  9995,2 44927  53.0512   2.1998 0008628  91.1399 269.0597 15.48852295339034
STARLINK-1123,44930,53.1321,0.0001783,15.24044785,492.43001811143586,494.88049923087783,1 44930U 20001S   26061.91668981  .01785607  00000+0  66278-1 0  9999,2 44930  53.1321  16.4511 0001783 106.5412 356.8215 15.24044785  5738
STARLINK-1094,44941,53.1614,0.0001098,15.30197154,474.47106808523495,475.9760660657639,1 44941U 20001AD  26061.23758930  .00002207  00000+0  86607-4 0  9998,2 44941  53.1614 354.1756 0001098  98.0294 262.0832 15.30197154339098
STARLINK-1122,44949,53.1619,0.0001363,15.3017246,474.36317703339864,476.231423223614,1 44949U 20001AM  26061.52521565 -.00002655  00000+0 -77623-4 0  9997,2 44949  53.1619 352.8858 0001363  98.3687 261.7468 15.30172460339132
STARLINK-1080,44961,53.0536,0.0008508,15.45852608,423.08259884293784,434.6654087670131,1 44961U 20001AZ  26061.70156351  .00084559  00000+0  17025-2 0  9997,2 44961  53.0536 321.5527 0008508  94.7953 265.4024 15.45852608339597
STARLINK-1090,44968,53.0623,0.0001233,15.09444516,537.0434951953603,538.7489889928611,1 44968U 20001BG  26061.91668981  .00045381  00000+0  28042-2 0  9995,2 44968  53.0623 337.0151 0001233 135.5043 177.4984 15.09444516  5826
STARLINK-1132,45044,53.1559,0.0004938,15.42854763,434.32307427333217,441.0543837633113,1 45044U 20006A   26061.79267210  .00071910  00000+0  16081-2 0  9999,2 45044  53.1559 286.6347 0004938 163.6248 196.4918 15.42854763335865
STARLINK-1131,45047,53.1598,0.0001232,15.30193104,474.3913241979626,476.0799952213147,1 45047U 20006D   26061.67730115  .00000777  00000+0  38349-4 0  9994,2 45047  53.1598 313.5533 0001232  86.5753 273.5388 15.30193104335473
STARLINK-1134,45048,53.0326,0.0009735,15.42672689,431.58928210469,444.86073893917546,1 45048U 20006E   26061.76191601  .00056798  00000+0  12808-2 0  9990,2 45048  53.0326 271.2374 0009735 145.8643 214.2990 15.42672689336079
STARLINK-1156,45054,53.1604,0.0001229,15.3019219,474.39610893546524,476.08066860602594,1 45054U 20006L   26061.11581035  .00001042  00000+0  47323-4 0  9994,2 45054  53.1604 316.1740 0001229  88.8291 271.2851 15.30192190335380
STARLINK-1159,45057,53.045,0.0004576,15.79658699,328.33661639278034,334.4771909734309,1 45057U 20006P   26061.91668981  .00151474  00000+0  80034-3 0  9991,2 45057  53.0450 268.7991 0004576 123.4403 167.5404 15.79658699  6021
STARLINK-1166,45060,53.0534,0.0005953,15.44142694,429.84305694889827,437.9534661312882,1 45060U 20006S   26061.84805566  .00040352  00000+0  87135-3 0  9990,2 45060  53.0534 305.2539 0005953 118.3928 241.7678 15.44142694335600
STARLINK-1169,45061,53.1593,0.0001421,15.3019406,474.2589413966798,476.20666909532974,1 45061U 20006T   26061.67098161  .00001558  00000+0  64745-4 0  9995,2 45061  53.1593 313.5978 0001421  89.7636 270.3527 15.30194060335474
STARLINK-1171,45062,53.0455,0.000188,15.55895858,398.2755252229035,400.82393543350736,1 45062U 20006U   26061.78242898  .00057601  00000+0  81747-3 0  9996,2 45062  53.0455 283.0014 0001880 353.4413   6.6573 15.55895858335916
STARLINK-1133,45064,53.1587,0.0001494,15.30191107,474.2177276767552,476.26551720914085,1 45064U 20006W   26061.80739368 -.00000513  00000+0 -51923-5 0  9991,2 45064  53.1587 289.7662 0001494  90.5165 269.6007 15.30191107335823
STARLINK-1167,45071,53.161,0.0001379,15.29349586,476.81000131694964,478.7008564488351,1 45071U 20006AD  26061.63550920  .00002517  00000+0  99547-4 0  9992,2 45071  53.1610 290.5751 0001379  90.6934 269.4225 15.29349586335794
STARLINK-1168,45072,53.1608,0.0001328,15.29368871,476.78733971917336,478.6082494406137,1 45072U 20006AE  26061.77600576  .00001672  00000+0  70243-4 0  9994,2 45072  53.1608 289.9857 0001328  97.9893 262.1258 15.29368871335816
STARLINK-1172,45074,53.1576,0.0001156,15.30204457,474.4095156921576,475.99400761385186,1 45074U 20006AG  26061.78421908 -.00000395  00000+0 -12050-5 0  9993,2 45074  53.1576 289.9006 0001156  93.6465 266.4668 15.30204457335818
STARLINK-1153,45080,53.1592,0.0001296,15.29344466,476.8822048513639,478.65925613510717,1 45080U 20006AN  26061.81598537 -.00001024  00000+0 -23180-4 0  9992,2 45080  53.1592 289.6564 0001296  89.3187 270.7962 15.29344466335826
STARLINK-1151,45081,53.0527,0.0001144,15.64399983,374.19239623473004,375.7375059611404,1 45081U 20006AP  26061.91668981 -.00019442  00000+0 -19389-3 0  9993,2 45081  53.0527 273.0204 0001144 110.6086 173.4885 15.64399983  5864
STARLINK-1185,45087,53.1558,0.0001393,15.2932679,476.86852226258816,478.77859287392675,1 45087U 20006AV  26061.78943019  .00009508  00000+0  34169-3 0  9995,2 45087  53.1558 274.4525 0001393  71.0779 289.0372 15.29326790336039
STARLINK-1183,45088,53.1584,0.0001707,15.30190066,474.07485845174233,476.414602974608,1 45088U 20006AW  26061.76412707  .00000268  00000+0  21203-4 0  9999,2 45088  53.1584 274.7502 0001707 109.3644 250.7542 15.30190066336022
STARLINK-1152,45096,53.0392,0.0005436,15.37437668,449.97573868715244,457.4033004792436,1 45096U 20006BE  26061.77476314  .00070227  00000+0  18776-2 0  9994,2 45096  53.0392 239.0789 0005436 170.8485 189.2617 15.37437668336520
STARLINK-1184,45098,53.0525,0.0006469,15.09891458,532.0582687490914,541.0044666832418,1 45098U 20006BG  26061.78273309  .00004393  00000+0  28575-3 0  9996,2 45098  53.0525 276.6012 0006469 116.0106 244.1551 15.09891458335993
STARLINK-1193,45100,53.0528,0.0001307,15.542037,403.58187692034426,405.35484996234754,1 45100U 20006BJ  26061.91668981  .00013386  00000+0  20878-3 0  9999,2 45100  53.0528 263.1644 0001307  76.5986  11.5765 15.54203700  5853
